ONEWEB-0233             
1 48795U 21045AE  26161.09761266  .00000057  00000+0  11779-3 0  9997
2 48795  87.8999 260.6472 0001692 106.7821 253.3495 13.15547483243365
ONEWEB-0190             
1 48796U 21045AF  26161.00899780 -.00000248  00000+0 -69258-3 0  9991
2 48796  87.9001 260.6266 0001254 103.5888 256.5382 13.15547800243424
ONEWEB-0236             
1 48797U 21045AG  26161.02645011  .00000119  00000+0  28214-3 0  9992
2 48797  87.8997 260.6331 0002084 103.3588 256.7775 13.15547775243315
ONEWEB-0248             
1 48798U 21045AH  26161.03911402  .00000196  00000+0  48727-3 0  9990
2 48798  87.9010 260.6134 0001610 112.9751 247.1549 13.15546979243471
ONEWEB-0225             
1 48799U 21045AJ  26160.98525490 -.00000130  00000+0 -38067-3 0  9998
2 48799  87.9007 260.6323 0001376 103.3303 256.7981 13.15548908243474
ONEWEB-0215             
1 48800U 21045AK  26161.03118170 -.00000151  00000+0 -43510-3 0  9993
2 48800  87.9011 260.6054 0001269 112.5912 247.5353 13.15548084243355
ONEWEB-0216             
1 48801U 21045AL  26160.81254372  .00000051  00000+0  10105-3 0  9995
2 48801  87.9009 260.6640 0001974  98.8290 261.3064 13.15548493243337
ONEWEB-0239             
1 48802U 21045AM  26161.19757788  .00000105  00000+0  24553-3 0  9999
2 48802  87.8999 260.5943 0001415 122.8005 237.3262 13.15548677243429
ONEWEB-0249             
1 48967U 21060A   26161.13717267  .00000007  00000+0 -14244-4 0  9999
2 48967  87.9101 230.1780 0002016 102.2982 257.8374 13.16595149238683
ONEWEB-0250             
1 48968U 21060B   26161.13809741  .00000097  00000+0  19187-3 0  9997
2 48968  87.9099 227.9571 0002612 120.2445 239.8950 13.25832801239284
ONEWEB-0252             
1 48970U 21060D   26161.16804327  .00000085  00000+0  19003-3 0  9992
2 48970  87.9100 230.1639 0001959  92.4500 267.6856 13.16593223238731
ONEWEB-0253             
1 48971U 21060E   26161.15695944  .00000015  00000+0  45742-5 0  9999
2 48971  87.9098 230.1717 0002039 102.8147 257.3212 13.16593392238669
ONEWEB-0254             
1 48972U 21060F   26161.16646430  .00000082  00000+0  18068-3 0  9990
2 48972  87.9102 230.1671 0001809 106.2333 253.8997 13.16593876238662
ONEWEB-0255             
1 48973U 21060G   26161.20446354 -.00000016  00000+0 -75360-4 0  9997
2 48973  87.9101 230.1663 0001881 101.5122 258.6220 13.16594275238742
ONEWEB-0256             
1 48974U 21060H   26161.15457709  .00000006  00000+0 -18202-4 0  9998
2 48974  87.9094 230.1808 0002118  96.3347 263.8026 13.16592951238706
ONEWEB-0257             
1 48975U 21060J   26161.18704163  .00000110  00000+0  25400-3 0  9993
2 48975  87.9100 230.1611 0001902  97.4992 262.6355 13.16594388238668
