[{"OBJECT_NAME":"ONEWEB-0233","OBJECT_ID":"2021-045AE","EPOCH":"2026-06-10T02:20:33.733824","MEAN_MOTION":13.15547483,"ECCENTRICITY":0.0001692,"INCLINATION":87.8999,"RA_OF_ASC_NODE":260.6472,"ARG_OF_PERICENTER":106.7821,"MEAN_ANOMALY":253.3495,"EPHEMERIS_TYPE":0,"CLASSIFICATION_TYPE":"U","NORAD_CAT_ID":48795,"ELEMENT_SET_NO":999,"REV_AT_EPOCH":24336,"BSTAR":0.00011779000000000001,"MEAN_MOTION_DOT":5.7e-07,"MEAN_MOTION_DDOT":0.0},{"OBJECT_NAME":"ONEWEB-0190","OBJECT_ID":"2021-045AF","EPOCH":"2026-06-10T00:12:57.409920","MEAN_MOTION":13.155478,"ECCENTRICITY":0.0001254,"INCLINATION":87.9001,"RA_OF_ASC_NODE":260.6266,"ARG_OF_PERICENTER":103.5888,"MEAN_ANOMALY":256.5382,"EPHEMERIS_TYPE":0,"CLASSIFICATION_TYPE":"U","NORAD_CAT_ID":48796,"ELEMENT_SET_NO":999,"REV_AT_EPOCH":24342,"BSTAR":-0.00069258,"MEAN_MOTION_DOT":-2.48e-06,"MEAN_MOTION_DDOT":0.0},{"OBJECT_NAME":"ONEWEB-0236","OBJECT_ID":"2021-045AG","EPOCH":"2026-06-10T00:38:05.289504","MEAN_MOTION":13.15547775,"ECCENTRICITY":0.0002084,"INCLINATION":87.8997,"RA_OF_ASC_NODE":260.6331,"ARG_OF_PERICENTER":103.3588,"MEAN_ANOMALY":256.7775,"EPHEMERIS_TYPE":0,"CLASSIFICATION_TYPE":"U","NORAD_CAT_ID":48797,"ELEMENT_SET_NO":999,"REV_AT_EPOCH":24331,"BSTAR":0.00028214,"MEAN_MOTION_DOT":1.19e-06,"MEAN_MOTION_DDOT":0.0},{"OBJECT_NAME":"ONEWEB-0248","OBJECT_ID":"2021-045AH","EPOCH":"2026-06-10T00:56:19.451328","MEAN_MOTION":13.15546979,"ECCENTRICITY":0.000161,"INCLINATION":87.901,"RA_OF_ASC_NODE":260.6134,"ARG_OF_PERICENTER":112.9751,"MEAN_ANOMALY":247.1549,"EPHEMERIS_TYPE":0,"CLASSIFICATION_TYPE":"U","NORAD_CAT_ID":48798,"ELEMENT_SET_NO":999,"REV_AT_EPOCH":24347,"BSTAR":0.00048727,"MEAN_MOTION_DOT":1.96e-06,"MEAN_MOTION_DDOT":0.0},{"OBJECT_NAME":"ONEWEB-0225","OBJECT_ID":"2021-045AJ","EPOCH":"2026-06-09T23:38:46.023360","MEAN_MOTION":13.15548908,"ECCENTRICITY":0.0001376,"INCLINATION":87.9007,"RA_OF_ASC_NODE":260.6323,"ARG_OF_PERICENTER":103.3303,"MEAN_ANOMALY":256.7981,"EPHEMERIS_TYPE":0,"CLASSIFICATION_TYPE":"U","NORAD_CAT_ID":48799,"ELEMENT_SET_NO":999,"REV_AT_EPOCH":24347,"BSTAR":-0.00038067,"MEAN_MOTION_DOT":-1.3e-06,"MEAN_MOTION_DDOT":0.0},{"OBJECT_NAME":"ONEWEB-0215","OBJECT_ID":"2021-045AK","EPOCH":"2026-06-10T00:44:54.098880","MEAN_MOTION":13.15548084,"ECCENTRICITY":0.0001269,"INCLINATION":87.9011,"RA_OF_ASC_NODE":260.6054,"ARG_OF_PERICENTER":112.5912,"MEAN_ANOMALY":247.5353,"EPHEMERIS_TYPE":0,"CLASSIFICATION_TYPE":"U","NORAD_CAT_ID":48800,"ELEMENT_SET_NO":999,"REV_AT_EPOCH":24335,"BSTAR":-0.0004351,"MEAN_MOTION_DOT":-1.51e-06,"MEAN_MOTION_DDOT":0.0},{"OBJECT_NAME":"ONEWEB-0216","OBJECT_ID":"2021-045AL","EPOCH":"2026-06-09T19:30:03.777408","MEAN_MOTION":13.15548493,"ECCENTRICITY":0.0001974,"INCLINATION":87.9009,"RA_OF_ASC_NODE":260.664,"ARG_OF_PERICENTER":98.829,"MEAN_ANOMALY":261.3064,"EPHEMERIS_TYPE":0,"CLASSIFICATION_TYPE":"U","NORAD_CAT_ID":48801,"ELEMENT_SET_NO":999,"REV_AT_EPOCH":24333,"BSTAR":0.00010105,"MEAN_MOTION_DOT":5.1e-07,"MEAN_MOTION_DDOT":0.0},{"OBJECT_NAME":"ONEWEB-0239","OBJECT_ID":"2021-045AM","EPOCH":"2026-06-10T04:44:30.728832","MEAN_MOTION":13.15548677,"ECCENTRICITY":0.0001415,"INCLINATION":87.8999,"RA_OF_ASC_NODE":260.5943,"ARG_OF_PERICENTER":122.8005,"MEAN_ANOMALY":237.3262,"EPHEMERIS_TYPE":0,"CLASSIFICATION_TYPE":"U","NORAD_CAT_ID":48802,"ELEMENT_SET_NO":999,"REV_AT_EPOCH":24342,"BSTAR":0.00024553,"MEAN_MOTION_DOT":1.05e-06,"MEAN_MOTION_DDOT":0.0},{"OBJECT_NAME":"ONEWEB-0249","OBJECT_ID":"2021-060A","EPOCH":"2026-06-10T03:17:31.718688","MEAN_MOTION":13.16595149,"ECCENTRICITY":0.0002016,"INCLINATION":87.9101,"RA_OF_ASC_NODE":230.178,"ARG_OF_PERICENTER":102.2982,"MEAN_ANOMALY":257.8374,"EPHEMERIS_TYPE":0,"CLASSIFICATION_TYPE":"U","NORAD_CAT_ID":48967,"ELEMENT_SET_NO":999,"REV_AT_EPOCH":23868,"BSTAR":-1.4244000000000001e-05,"MEAN_MOTION_DOT":7e-08,"MEAN_MOTION_DDOT":0.0},{"OBJECT_NAME":"ONEWEB-0250","OBJECT_ID":"2021-060B","EPOCH":"2026-06-10T03:18:51.616224","MEAN_MOTION":13.25832801,"ECCENTRICITY":0.0002612,"INCLINATION":87.9099,"RA_OF_ASC_NODE":227.9571,"ARG_OF_PERICENTER":120.2445,"MEAN_ANOMALY":239.895,"EPHEMERIS_TYPE":0,"CLASSIFICATION_TYPE":"U","NORAD_CAT_ID":48968,"ELEMENT_SET_NO":999,"REV_AT_EPOCH":23928,"BSTAR":0.00019187000000000002,"MEAN_MOTION_DOT":9.7e-07,"MEAN_MOTION_DDOT":0.0},{"OBJECT_NAME":"ONEWEB-0252","OBJECT_ID":"2021-060D","EPOCH":"2026-06-10T04:01:58.938528","MEAN_MOTION":13.16593223,"ECCENTRICITY":0.0001959,"INCLINATION":87.91,"RA_OF_ASC_NODE":230.1639,"ARG_OF_PERICENTER":92.45,"MEAN_ANOMALY":267.6856,"EPHEMERIS_TYPE":0,"CLASSIFICATION_TYPE":"U","NORAD_CAT_ID":48970,"ELEMENT_SET_NO":999,"REV_AT_EPOCH":23873,"BSTAR":0.00019003,"MEAN_MOTION_DOT":8.5e-07,"MEAN_MOTION_DDOT":0.0},{"OBJECT_NAME":"ONEWEB-0253","OBJECT_ID":"2021-060E","EPOCH":"2026-06-10T03:46:01.295616","MEAN_MOTION":13.16593392,"ECCENTRICITY":0.0002039,"INCLINATION":87.9098,"RA_OF_ASC_NODE":230.1717,"ARG_OF_PERICENTER":102.8147,"MEAN_ANOMALY":257.3212,"EPHEMERIS_TYPE":0,"CLASSIFICATION_TYPE":"U","NORAD_CAT_ID":48971,"ELEMENT_SET_NO":999,"REV_AT_EPOCH":23866,"BSTAR":4.5742e-06,"MEAN_MOTION_DOT":1.5e-07,"MEAN_MOTION_DDOT":0.0},{"OBJECT_NAME":"ONEWEB-0254","OBJECT_ID":"2021-060F","EPOCH":"2026-06-10T03:59:42.515520","MEAN_MOTION":13.16593876,"ECCENTRICITY":0.0001809,"INCLINATION":87.9102,"RA_OF_ASC_NODE":230.1671,"ARG_OF_PERICENTER":106.2333,"MEAN_ANOMALY":253.8997,"EPHEMERIS_TYPE":0,"CLASSIFICATION_TYPE":"U","NORAD_CAT_ID":48972,"ELEMENT_SET_NO":999,"REV_AT_EPOCH":23866,"BSTAR":0.00018068,"MEAN_MOTION_DOT":8.2e-07,"MEAN_MOTION_DDOT":0.0},{"OBJECT_NAME":"ONEWEB-0255","OBJECT_ID":"2021-060G","EPOCH":"2026-06-10T04:54:25.649856","MEAN_MOTION":13.16594275,"ECCENTRICITY":0.0001881,"INCLINATION":87.9101,"RA_OF_ASC_NODE":230.1663,"ARG_OF_PERICENTER":101.5122,"MEAN_ANOMALY":258.622,"EPHEMERIS_TYPE":0,"CLASSIFICATION_TYPE":"U","NORAD_CAT_ID":48973,"ELEMENT_SET_NO":999,"REV_AT_EPOCH":23874,"BSTAR":-7.536000000000001e-05,"MEAN_MOTION_DOT":-1.6e-07,"MEAN_MOTION_DDOT":0.0},{"OBJECT_NAME":"ONEWEB-0256","OBJECT_ID":"2021-060H","EPOCH":"2026-06-10T03:42:35.460576","MEAN_MOTION":13.16592951,"ECCENTRICITY":0.0002118,"INCLINATION":87.9094,"RA_OF_ASC_NODE":230.1808,"ARG_OF_PERICENTER":96.3347,"MEAN_ANOMALY":263.8026,"EPHEMERIS_TYPE":0,"CLASSIFICATION_TYPE":"U","NORAD_CAT_ID":48974,"ELEMENT_SET_NO":999,"REV_AT_EPOCH":23870,"BSTAR":-1.8202e-05,"MEAN_MOTION_DOT":6e-08,"MEAN_MOTION_DDOT":0.0},{"OBJECT_NAME":"ONEWEB-0257","OBJECT_ID":"2021-060J","EPOCH":"2026-06-10T04:29:20.396832","MEAN_MOTION":13.16594388,"ECCENTRICITY":0.0001902,"INCLINATION":87.91,"RA_OF_ASC_NODE":230.1611,"ARG_OF_PERICENTER":97.4992,"MEAN_ANOMALY":262.6355,"EPHEMERIS_TYPE":0,"CLASSIFICATION_TYPE":"U","NORAD_CAT_ID":48975,"ELEMENT_SET_NO":999,"REV_AT_EPOCH":23866,"BSTAR":0.000254,"MEAN_MOTION_DOT":1.1e-06,"MEAN_MOTION_DDOT":0.0}]